ARIANE 44L DEB          
1 27671U 91075G   25106.94058438  .01580155  21618-3  16925-1 0  9990
2 27671   7.0152 300.7628 1614872  49.4146 323.5819 12.39184721429502
FENGYUN 1C DEB          
1 30924U 99025AZN 25119.47515264  .05430769  00000+0  29854-1 0  9997
2 30924  98.9162 296.8390 0027267 295.9049  63.9401 15.74801354939758
FENGYUN 1C DEB          
1 30951U 99025BAR 25107.92098537  .00986270  00000+0  82965-2 0  9994
2 30951  99.8240 275.2437 0031628 251.9159 107.8647 15.66804900961800
IRIDIUM 33 DEB          
1 34106U 97051DR  25122.49836938  .04367207  25918-1  10369-1 0  9993
2 34106  86.3101  74.0057 0019043 156.8147 203.4003 15.99812850858525
COSMOS 2251 DEB         
1 34300U 93036MW  25122.02239291  .08991877  29590+0  18032-1 0  9999
2 34300  73.9536 118.2183 0017890 237.6895 122.2616 16.07458792855089
COSMOS 2251 DEB         
1 34401U 93036QS  25122.47149531  .03530910  00000+0  12492-1 0  9998
2 34401  74.0000 348.5898 0017380 166.8225 193.3464 15.85154123860637
COSMOS 2251 DEB         
1 36626U 93036BEQ 25109.24295789  .00782382  27402-3  17895-2 0  9997
2 36626  73.9854 313.1685 0012068  52.0522 308.1804 15.97172511647326
FLOCK 1C-10             
1 40023U 14033P   25120.25834427  .05176950  28063-5  34834-2 0  9996
2 40023  98.0543 132.6121 0014822 211.1319 148.9089 16.16570610592380
PEARL WHITE 1           
1 44497U 19054C   25122.22761931  .02344290  77838-2  16662-2 0  9992
2 44497  44.9824  40.7604 0009436 217.2888 142.7375 16.17011791316586
STARLINK-1106           
1 44923U 20001K   25122.54856572  .02309692  11869-4  10518-2 0  9996
2 44923  52.9878 147.7898 0006299 351.5851  86.6794 16.21239596295113
STARLINK-1275           
1 45407U 20019AZ  25122.78588262  .02370541  40301-2  56577-2 0  9994
2 45407  53.0399 355.3801 0004147 207.3053 277.4991 15.96971088284368
MEZNSAT                 
1 46489U 20068D   25122.12913692  .12114208  28627-5  69233-3 0  9997
2 46489  97.7960 120.2084 0010064 230.9354 129.1050 16.41369323254125
ASTROCAST-0202          
1 48961U 21059CL  25122.41098516  .02350985  59212-2  28334-2 0  9996
2 48961  97.6230 294.3124 0012477 280.3524  79.6352 16.09611457214567
MDASAT-1C               
1 51038U 22002BG  25121.58293912  .06186058  24570-5  11525-2 0  9996
2 51038  97.3249 204.3899 0012030 267.7483  92.2435 16.32013358183875
STARLINK-4449           
1 53666U 22105U   25119.45586497  .03847239  26241-5  12762-2 0  9998
2 53666  97.6348   7.3349 0005683 239.1167 120.9566 16.25857663146641
CAPELLA-10-WHITNEY      
1 55909U 23035B   25122.35900139  .02788297  64438-2  70973-2 0  9991
2 55909  43.9740  78.8573 0016195 168.0964 330.9171 15.95890152117391
STARLINK-5967           
1 56330U 23058P   25120.06865450  .06015122  26787-5  69160-3 0  9996
2 56330  97.6293 130.6924 0013381 213.4301 146.6153 16.36616867111605
STARLINK-6228           
1 56543U 23065AS  25122.26399201  .02050742  89184-5  88875-3 0  9997
2 56543  42.9960  64.3783 0005338 231.9818 243.6504 16.21624491109434
STARLINK-6068           
1 56798U 23078AH  25121.98386152  .01880876  25213-2  29826-2 0  9990
2 56798  69.9988  20.1302 0004285 264.3883 205.0057 16.04215269106997
SHIYAN-25 (SY-25)       
1 57047U 23087A   25122.13154037  .02377460  47463-2  43229-2 0  9996
2 57047  96.4198 184.4428 0025399 249.1525 110.7037 16.02014198106355
PICO-01G005             
1 58330U 23174CC  25122.18147376  .07122583  24793-5  14648-2 0  9998
2 58330  97.3691 209.9653 0015326 273.6850  86.2692 16.30832066 82961
STARLINK-31617          
1 59455U 24068A   25122.64037184  .20653725  90066-5  64015-2 0  9997
2 59455  42.9810 331.6600 0014232 270.7482 135.1738 16.25343475 61189
STARLINK-31803          
1 59649U 24082U   25122.32936477  .06019998  67038-1  10944-1 0  9998
2 59649  42.9888  64.5919 0015516 214.9354 282.5467 16.04810068 57622
STARLINK-11208 [DTC]    
1 60311U 24133L   25122.58335648  .00109716  00000+0  70065-3 0  9992
2 60311  53.1491 239.8207 0005466 346.0576 307.7793 15.75547572  6559
CZ-6A DEB               
1 61093U 24140NK  25122.54306546  .05487009  00000+0  24897-1 0  9998
2 61093  88.9255 316.9528 0020949 240.3232 119.5960 15.79365974 36682
CZ-6A DEB               
1 61364U 24140WD  25119.28571562  .04951500  00000+0  24807-1 0  9990
2 61364  89.1201 323.3637 0014611 194.0444 166.0428 15.77631770 35413
CZ-6A DEB               
1 61400U 24140XR  25122.58717886  .05876245  00000+0  22226-1 0  9995
2 61400  89.2904 329.0740 0011209 118.7895 241.4512 15.83872777 35150
CZ-6A DEB               
1 61820U 24140ACL 25098.11056480  .00885995  00000+0  24064-1 0  9997
2 61820  89.2943 330.2957 0042195 208.0106 151.8877 15.34238082 32100
CZ-2F R/B               
1 63633U 25082B   25122.79872868  .12669141  78614-5  34580-3 0  9999
2 63633  41.4570 292.5240 0026111 206.6050 247.2406 16.42622166  1314
